{"type": "FeatureCollection", "features": [ {"type": "Feature", "properties": {"norad_id": 67160, "name": "GALILEO A", "group": "gnss", "lat": 50.35900273077751, "lon": 167.27910200750756, "alt_km": 22961.97638743191, "timestamp": "2025-12-26T22:28:06.028376+00:00", "meta": {"OBJECT_NAME": "GALILEO A", "OBJECT_ID": "2025-302A", "EPOCH": "2025-12-18T03:30:19.486368", "MEAN_MOTION": 1.72906186, "ECCENTRICITY": 0.00084238, "INCLINATION": 54.2406, "RA_OF_ASC_NODE": 107.2544, "ARG_OF_PERICENTER": 237.6458, "MEAN_ANOMALY": 122.2317, "EPHEMERIS_TYPE": 0, "CLASSIFICATION_TYPE": "U", "NORAD_CAT_ID": 67160, "ELEMENT_SET_NO": 999, "REV_AT_EPOCH": 2, "BSTAR": 0, "MEAN_MOTION_DOT": -7e-08, "MEAN_MOTION_DDOT": 0}, "tle": {"line1": "1 67160U 25302A   25352.14605887 -.00000007  00000+0  00000+0 0  9994", "line2": "2 67160  54.2406 107.2544 0008423 237.6458 122.2317  1.72906186    28"}}, "geometry": {"type": "Point", "coordinates": [167.27910200750756, 50.35900273077751]}}, {"type": "Feature", "properties": {"norad_id": 67161, "name": "GALILEO B", "group": "gnss", "lat": 51.230715238801324, "lon": 170.6541343304033, "alt_km": 22944.38848862741, "timestamp": "2025-12-26T22:28:06.028387+00:00", "meta": {"OBJECT_NAME": "GALILEO B", "OBJECT_ID": "2025-302B", "EPOCH": "2025-12-23T22:14:45.806784", "MEAN_MOTION": 1.72972399, "ECCENTRICITY": 0.0004773, "INCLINATION": 54.2288, "RA_OF_ASC_NODE": 107.0543, "ARG_OF_PERICENTER": 256.4255, "MEAN_ANOMALY": 103.5077, "EPHEMERIS_TYPE": 0, "CLASSIFICATION_TYPE": "U", "NORAD_CAT_ID": 67161, "ELEMENT_SET_NO": 999, "REV_AT_EPOCH": 13, "BSTAR": 0, "MEAN_MOTION_DOT": 1.4e-07, "MEAN_MOTION_DDOT": 0}, "tle": {"line1": "1 67161U 25302B   25357.92691906  .00000014  00000+0  00000+0 0  9990", "line2": "2 67161  54.2288 107.0543 0004773 256.4255 103.5077  1.72972399   138"}}, "geometry": {"type": "Point", "coordinates": [170.6541343304033, 51.230715238801324]}}]}